IRIDIUM 166             
1 43570U 18061B   24275.49470489  .00000892  00000+0  31130-3 0  9999
2 43570  86.3965 317.3971 0002239  99.4737 260.6712 14.34219982324000
IRIDIUM 158             
1 43571U 18061C   24275.88160171  .00000121  00000+0  36186-4 0  9999
2 43571  86.3959 317.2444 0002299  98.4706 261.6751 14.34215447324027
IRIDIUM 165             
1 43572U 18061D   24275.48836779  .00000830  00000+0  28925-3 0  9998
2 43572  86.3966 317.4437 0002311  93.8815 266.2645 14.34224786323999
IRIDIUM 155             
1 43573U 18061E   24275.86891648  .00000522  00000+0  17917-3 0  9994
2 43573  86.3961 317.1845 0002209  98.9607 261.1839 14.34219638324019
IRIDIUM 154             
1 43574U 18061F   24275.57081474  .00000577  00000+0  19892-3 0  9995
2 43574  86.3968 317.4121 0002121  90.3516 269.7923 14.34218910324026
IRIDIUM 163             
1 43575U 18061G   24275.55178695  .00000468  00000+0  16017-3 0  9991
2 43575  86.3961 317.3548 0001998  96.0745 264.0678 14.34218988323995
IRIDIUM 156             
1 43576U 18061H   24275.87525903  .00000695  00000+0  24122-3 0  9993
2 43576  86.3960 317.2264 0002367 101.0793 259.0669 14.34220261324037
IRIDIUM 164             
1 43577U 18061J   24275.57715570 -.00000118  00000+0 -49047-4 0  9998
2 43577  86.3962 317.3811 0002247  91.1027 269.0427 14.34220658324038
